NORAD_CAT_ID,OBJECT_NAME,OBJECT_TYPE,EPOCH,MEAN_MOTION,ECCENTRICITY,INCLINATION,RA_OF_ASC_NODE,ARG_OF_PERICENTER,MEAN_ANOMALY,BSTAR,MEAN_MOTION_DOT,MEAN_MOTION_DDOT,TLE_LINE0,TLE_LINE1,TLE_LINE2,SEMIMAJOR_AXIS,PERIOD,APOGEE,PERIGEE,DECAYED
52362.0,STARLINK-3848,PAYLOAD,2022-10-08 13:22:57,15.08825046,0.0002249,53.2183,32.2062,37.2928,322.822,-0.00013185,-2.385e-05,0.0,0 STARLINK-3848,1 52362U 22045AH  22281.55760793 -.00002385  00000-0 -13185-3 0  9999,2 52362  53.2183  32.2062 0002249  37.2928 322.8220 15.08825046 27495,6917.926,95.439,541.347,538.235,0.0
52362.0,STARLINK-3848,PAYLOAD,2022-10-08 14:58:20,15.08828377,0.0002322,53.2186,31.9083,31.2299,328.8831,-0.00012426,-2.265e-05,0.0,0 STARLINK-3848,1 52362U 22045AH  22281.62384618 -.00002265  00000-0 -12426-3 0  9999,2 52362  53.2186  31.9083 0002322  31.2299 328.8831 15.08828377 27500,6917.916,95.438,541.387,538.175,0.0
52362.0,STARLINK-3848,PAYLOAD,2022-10-09 02:06:01,15.08837395,0.0002239,53.2186,29.8274,31.333,328.7795,-1.7727e-05,-5.700000000000001e-06,0.0,0 STARLINK-3848,1 52362U 22045AH  22282.08751825 -.00000570  00000-0 -17727-4 0  9995,2 52362  53.2186  29.8274 0002239  31.3330 328.7795 15.08837395 27577,6917.888000000001,95.438,541.302,538.2040000000002,0.0
52362.0,STARLINK-3848,PAYLOAD,2022-10-09 13:13:44,15.08829899,0.0002245,53.2185,27.7457,31.6149,328.4978,-8.8143e-06,-4.29e-06,0.0,0 STARLINK-3848,1 52362U 22045AH  22282.55120493 -.00000429  00000-0 -88143-5 0  9992,2 52362  53.2185  27.7457 0002245  31.6149 328.4978 15.08829899 27642,6917.911,95.438,541.3290000000002,538.2230000000002,0.0
52362.0,STARLINK-3848,PAYLOAD,2022-10-09 14:49:06,15.08832044,0.0002193,53.2183,27.4486,33.6996,326.4135,4.7176e-05,4.62e-06,0.0,0 STARLINK-3848,1 52362U 22045AH  22282.61744186  .00000462  00000-0  47176-4 0  9995,2 52362  53.2183  27.4486 0002193  33.6996 326.4135 15.08832044 27653,6917.905,95.438,541.2869999999998,538.253,0.0
52362.0,STARLINK-3848,PAYLOAD,2022-10-10 06:42:57,15.08835928,0.0002233,53.2182,24.4748,32.3002,327.8127,0.00016127,2.279e-05,0.0,0 STARLINK-3848,1 52362U 22045AH  22283.27983486  .00002279  00000-0  16127-3 0  9995,2 52362  53.2182  24.4748 0002233  32.3002 327.8127 15.08835928 27750,6917.893,95.438,541.303,538.2130000000002,0.0
52362.0,STARLINK-3848,PAYLOAD,2022-10-10 13:04:30,15.08831555,0.0002265,53.2185,23.2851,32.9164,327.1969,0.00011584,1.555e-05,0.0,0 STARLINK-3848,1 52362U 22045AH  22283.54480042  .00001555  00000-0  11584-3 0  9993,2 52362  53.2185  23.2851 0002265  32.9164 327.1969 15.08831555 27798,6917.906,95.438,541.3380000000002,538.2040000000002,0.0
52362.0,STARLINK-3848,PAYLOAD,2022-10-11 03:22:58,15.08843965,0.0002116,53.2183,20.6092,36.7376,323.3761,0.00010079,1.316e-05,0.0,0 STARLINK-3848,1 52362U 22045AH  22284.14095141  .00001316  00000-0  10079-3 0  9995,2 52362  53.2183  20.6092 0002116  36.7376 323.3761 15.08843965 27882,6917.868,95.437,541.197,538.269,0.0
52362.0,STARLINK-3848,PAYLOAD,2022-10-11 11:19:56,15.0881333,0.0002262,53.2184,19.1226,29.7735,330.3386,-0.00013975,-2.51e-05,0.0,0 STARLINK-3848,1 52362U 22045AH  22284.47218087 -.00002510  00000-0 -13975-3 0  9994,2 52362  53.2184  19.1226 0002262  29.7735 330.3386 15.08813330 27938,6917.962,95.439,541.3919999999998,538.262,0.0
52362.0,STARLINK-3848,PAYLOAD,2022-10-12 03:13:46,15.08835084,0.0002460999999999,53.2188,16.1491,25.7754,334.336,-5.3274e-05,-1.136e-05,0.0,0 STARLINK-3848,1 52362U 22045AH  22285.13456648 -.00001136  00000-0 -53274-4 0  9995,2 52362  53.2188  16.1491 0002461  25.7754 334.3360 15.08835084 28039,6917.895,95.438,541.4630000000002,538.058,0.0
52362.0,STARLINK-3848,PAYLOAD,2022-10-12 11:10:42,15.08829353,0.0002343,53.2182,14.6624,34.1429,325.9713,-8.837200000000001e-05,-1.694e-05,0.0,0 STARLINK-3848,1 52362U 22045AH  22285.46577180 -.00001694  00000-0 -88372-4 0  9992,2 52362  53.2182  14.6624 0002343  34.1429 325.9713 15.08829353 28081,6917.913000000001,95.438,541.399,538.1569999999998,0.0
52362.0,STARLINK-3848,PAYLOAD,2022-10-13 12:36:53,15.08820436,0.0002405,53.2186,9.9047,32.1094,328.0045,-7.8988e-06,-4.14e-06,0.0,0 STARLINK-3848,1 52362U 22045AH  22286.52562150 -.00000414  00000-0 -78988-5 0  9993,2 52362  53.2186   9.9047 0002405  32.1094 328.0045 15.08820436 28249,6917.94,95.439,541.469,538.141,0.0
52362.0,STARLINK-3848,PAYLOAD,2022-10-14 06:06:07,15.08839628,0.0002491,53.22,6.6323,24.1659,335.945,4.584e-05,4.41e-06,0.0,0 STARLINK-3848,1 52362U 22045AH  22287.25425400  .00000441  00000-0  45840-4 0  9998,2 52362  53.2200   6.6323 0002491  24.1659 335.9450 15.08839628 28352,6917.882,95.438,541.47,538.023,0.0
52362.0,STARLINK-3848,PAYLOAD,2022-10-14 12:27:39,15.08841944,0.0002375,53.2197,5.4424,29.9645,330.1483,6.1697e-05,6.94e-06,0.0,0 STARLINK-3848,1 52362U 22045AH  22287.51920901  .00000694  00000-0  61697-4 0  9991,2 52362  53.2197   5.4424 0002375  29.9645 330.1483 15.08841944 28396,6917.874,95.437,541.382,538.096,0.0
52362.0,STARLINK-3848,PAYLOAD,2022-10-15 12:18:28,15.088205800000004,0.000244,53.2198,0.9831,29.9546,330.1585,-7.4514e-05,-1.473e-05,0.0,0 STARLINK-3848,1 52362U 22045AH  22288.51283369 -.00001473  00000-0 -74514-4 0  9992,2 52362  53.2198   0.9831 0002440  29.9546 330.1585 15.08820580 28545,6917.94,95.439,541.493,538.117,0.0
52362.0,STARLINK-3848,PAYLOAD,2022-10-15 13:53:52,15.0882034,0.0002446,53.2197,0.6858,29.5617,330.5513,-7.6006e-05,-1.497e-05,0.0,0 STARLINK-3848,1 52362U 22045AH  22288.57907454 -.00001497  00000-0 -76006-4 0  9990,2 52362  53.2197   0.6858 0002446  29.5617 330.5513 15.08820340 28551,6917.94,95.439,541.498,538.113,0.0
52362.0,STARLINK-3848,PAYLOAD,2022-10-16 12:09:17,15.0882227,0.0002653,53.2183,356.5246,26.9631,333.1499,-0.00023717,-4.059e-05,0.0,0 STARLINK-3848,1 52362U 22045AH  22289.50645003 -.00004059  00000-0 -23717-3 0  9990,2 52362  53.2183 356.5246 0002653  26.9631 333.1499 15.08822270 28698,6917.935,95.439,541.635,537.964,0.0
52362.0,STARLINK-3848,PAYLOAD,2022-10-16 13:44:40,15.08820661,0.0002806,53.2184,356.2271,24.6369,335.4756,-0.00017401,-3.056e-05,0.0,0 STARLINK-3848,1 52362U 22045AH  22289.57268948 -.00003056  00000-0 -17401-3 0  9995,2 52362  53.2184 356.2271 0002806  24.6369 335.4756 15.08820661 28702,6917.94,95.439,541.746,537.863,0.0
52362.0,STARLINK-3848,PAYLOAD,2022-10-17 04:03:06,15.08855673,0.0002552,53.2184,353.5506,25.8205,334.2914,-9.8509e-05,-1.857e-05,0.0,0 STARLINK-3848,1 52362U 22045AH  22290.16882702 -.00001857  00000-0 -98509-4 0  9998,2 52362  53.2184 353.5506 0002552  25.8205 334.2914 15.08855673 28796,6917.831999999999,95.437,541.4630000000002,537.932,0.0
52362.0,STARLINK-3848,PAYLOAD,2022-10-17 12:00:02,15.088421,0.0002491,53.2186,352.0643,30.2598,329.8538,0.00023805,3.503e-05,0.0,0 STARLINK-3848,1 52362U 22045AH  22290.50002381  .00003503  00000-0  23805-3 0  9997,2 52362  53.2186 352.0643 0002491  30.2598 329.8538 15.08842100 28840,6917.874,95.437,541.462,538.016,0.0
52362.0,STARLINK-3848,PAYLOAD,2022-10-18 02:18:30,15.08836144,0.0002437,53.2176,349.3862,29.7083,330.4047,0.00021599,3.151e-05,0.0,0 STARLINK-3848,1 52362U 22045AH  22291.09618777  .00003151  00000-0  21599-3 0  9991,2 52362  53.2176 349.3862 0002437  29.7083 330.4047 15.08836144 28937,6917.892,95.438,541.443,538.071,0.0
52362.0,STARLINK-3848,PAYLOAD,2022-10-18 10:15:26,15.08824347,0.0002278,53.2193,347.8998,25.2467,334.8636,0.00027858,4.146e-05,0.0,0 STARLINK-3848,1 52362U 22045AH  22291.42739472  .00004146  00000-0  27858-3 0  9993,2 52362  53.2193 347.8998 0002278  25.2467 334.8636 15.08824347 28988,6917.928000000001,95.439,541.369,538.217,0.0
52362.0,STARLINK-3848,PAYLOAD,2022-10-19 02:09:17,15.08845896,0.0002566999999999,53.2186,344.9277,27.705,332.4079,-3.4653e-05,-8.400000000000001e-06,0.0,0 STARLINK-3848,1 52362U 22045AH  22292.08979163 -.00000840  00000-0 -34653-4 0  9990,2 52362  53.2186 344.9277 0002567  27.7050 332.4079 15.08845896 29083,6917.861999999999,95.437,541.503,537.952,0.0
52362.0,STARLINK-3848,PAYLOAD,2022-10-19 10:06:12,15.08853722,0.0002566999999999,53.2182,343.4405,28.7933,331.32,1.3128e-05,-7.9e-07,0.0,0 STARLINK-3848,1 52362U 22045AH  22292.42098277 -.00000079  00000-0  13128-4 0  9993,2 52362  53.2182 343.4405 0002567  28.7933 331.3200 15.08853722 29134,6917.8380000000025,95.437,541.479,537.928,0.0
52362.0,STARLINK-3848,PAYLOAD,2022-10-19 13:16:59,15.08851724,0.0002539,53.2182,342.8466,27.5551,332.5576,-3.2348e-05,-8.03e-06,0.0,0 STARLINK-3848,1 52362U 22045AH  22292.55346516 -.00000803  00000-0 -32348-4 0  9990,2 52362  53.2182 342.8466 0002539  27.5551 332.5576 15.08851724 29157,6917.845,95.437,541.466,537.953,0.0
52362.0,STARLINK-3848,PAYLOAD,2022-10-20 02:00:04,15.08844059,0.0002503,53.2184,340.4668,27.4139,332.6985,-2.2779e-05,-6.51e-06,0.0,0 STARLINK-3848,1 52362U 22045AH  22293.08338504 -.00000651  00000-0 -22779-4 0  9995,2 52362  53.2184 340.4668 0002503  27.4139 332.6985 15.08844059 29236,6917.868,95.437,541.465,538.001,0.0
52362.0,STARLINK-3848,PAYLOAD,2022-10-20 09:57:00,15.08838502,0.0002596,53.2182,338.9803,26.1891,333.9232,-5.9954e-05,-1.243e-05,0.0,0 STARLINK-3848,1 52362U 22045AH  22293.41458941 -.00001243  00000-0 -59954-4 0  9993,2 52362  53.2182 338.9803 0002596  26.1891 333.9232 15.08838502 29280,6917.885,95.438,541.5459999999998,537.9540000000002,0.0
52362.0,STARLINK-3848,PAYLOAD,2022-10-21 01:50:51,15.08844076,0.0002287,53.2186,336.0047,30.736,329.3765,9.5751e-06,-1.36e-06,0.0,0 STARLINK-3848,1 52362U 22045AH  22294.07698188 -.00000136  00000-0  95751-5 0  9990,2 52362  53.2186 336.0047 0002287  30.7360 329.3765 15.08844076 29386,6917.868,95.437,541.315,538.151,0.0
52362.0,STARLINK-3848,PAYLOAD,2022-10-21 09:47:47,15.08837756,0.000263,53.218,334.5193,25.3513,334.7607,-3.9229e-05,-9.13e-06,0.0,0 STARLINK-3848,1 52362U 22045AH  22294.40818819 -.00000913  00000-0 -39229-4 0  9993,2 52362  53.2180 334.5193 0002630  25.3513 334.7607 15.08837756 29435,6917.887,95.438,541.572,537.933,0.0
